[{"OBJECT_NAME":"ONEWEB-0312","OBJECT_ID":"2021-075Z","EPOCH":"2026-03-09T22:31:12.455040","MEAN_MOTION":13.17649129,"ECCENTRICITY":0.00020326,"INCLINATION":87.9153,"RA_OF_ASC_NODE":25.5826,"ARG_OF_PERICENTER":72.3463,"MEAN_ANOMALY":287.7891,"EPHEMERIS_TYPE":0,"CLASSIFICATION_TYPE":"U","NORAD_CAT_ID":49098,"ELEMENT_SET_NO":999,"REV_AT_EPOCH":22053,"BSTAR":4.8302552e-5,"MEAN_MOTION_DOT":3.2e-7,"MEAN_MOTION_DDOT":0},{"OBJECT_NAME":"THORAD DELTA 1 DEB","OBJECT_ID":"1974-089DZ","EPOCH":"2026-03-09T06:06:06.587424","MEAN_MOTION":13.33335464,"ECCENTRICITY":0.00780005,"INCLINATION":101.7633,"RA_OF_ASC_NODE":347.3256,"ARG_OF_PERICENTER":307.8438,"MEAN_ANOMALY":205.5308,"EPHEMERIS_TYPE":0,"CLASSIFICATION_TYPE":"U","NORAD_CAT_ID":9730,"ELEMENT_SET_NO":999,"REV_AT_EPOCH":42980,"BSTAR":0.006718892,"MEAN_MOTION_DOT":3.304e-5,"MEAN_MOTION_DDOT":0}]
